{
    "links": {
        "self": "http://www.neowsapp.com/rest/v1/neo/3727342?api_key=iIulBulltgU6a56xZRHN4H3l9WmuAYTsLGpBGhQ2"
    },
    "id": "3727342",
    "neo_reference_id": "3727342",
    "name": "(2015 RS82)",
    "designation": "2015 RS82",
    "nasa_jpl_url": "http://ssd.jpl.nasa.gov/sbdb.cgi?sstr=3727342",
    "absolute_magnitude_h": 23.3,
    "estimated_diameter": {
        "kilometers": {
            "estimated_diameter_min": 0.058150704,
            "estimated_diameter_max": 0.130028927
        },
        "meters": {
            "estimated_diameter_min": 58.1507039646,
            "estimated_diameter_max": 130.0289270043
        },
        "miles": {
            "estimated_diameter_min": 0.0361331611,
            "estimated_diameter_max": 0.0807962044
        },
        "feet": {
            "estimated_diameter_min": 190.7831555951,
            "estimated_diameter_max": 426.6041048727
        }
    },
    "is_potentially_hazardous_asteroid": false,
    "close_approach_data": [
        {
            "close_approach_date": "2015-08-28",
            "close_approach_date_full": "2015-Aug-28 04:30",
            "epoch_date_close_approach": 1440736200000,
            "relative_velocity": {
                "kilometers_per_second": "5.0078580872",
                "kilometers_per_hour": "18028.2891137967",
                "miles_per_hour": "11202.077755181"
            },
            "miss_distance": {
                "astronomical": "0.2864427712",
                "lunar": "111.4262379968",
                "kilometers": "42851228.448417344",
                "miles": "26626518.6697695872"
            },
            "orbiting_body": "Earth"
        }
    ],
    "orbital_data": {
        "orbit_id": "6",
        "orbit_determination_date": "2017-04-06 08:31:59",
        "first_observation_date": "2015-09-12",
        "last_observation_date": "2015-09-30",
        "data_arc_in_days": 18,
        "observations_used": 17,
        "orbit_uncertainty": "8",
        "minimum_orbit_intersection": ".273157",
        "jupiter_tisserand_invariant": "3.520",
        "epoch_osculation": "2457279.5",
        "eccentricity": ".4216468572503024",
        "semi_major_axis": "2.21166943444956",
        "inclination": "9.005621304505988",
        "ascending_node_longitude": "167.2148549916382",
        "orbital_period": "1201.375444196602",
        "perihelion_distance": "1.279125968137349",
        "perihelion_argument": "160.6784975861916",
        "aphelion_distance": "3.14421290076177",
        "perihelion_time": "2457250.152133744780",
        "mean_anomaly": "8.794279842255733",
        "mean_motion": ".2996565326343453",
        "equinox": "J2000",
        "orbit_class": {
            "orbit_class_type": "AMO",
            "orbit_class_description": "Near-Earth asteroid orbits similar to that of 1221 Amor",
            "orbit_class_range": "1.017 AU < q (perihelion) < 1.3 AU"
        }
    },
    "is_sentry_object": false
}